<?xml version="1.0" encoding="ISO-8859-1"?><cdm xmlns:ndm="urn:ccsds:recommendation:navigation:schema:ndmxml" xmlns:xsi="http://www.w3.org/2001/XMLSchema-instance" id="CCSDS_CDM_VERS" version="1.0" xsi:noNamespaceSchemaLocation="http://sanaregistry.org/r/ndmxml/ndmxml-1.0-master.xsd"><header><COMMENT>CDM_ID:613325052</COMMENT><COMMENT>EVENT_ID:CA-24001A-90094A-202312021836</COMMENT><CREATION_DATE>2023-11-28T23:45:14.000</CREATION_DATE><ORIGINATOR>CSpOC</ORIGINATOR><MESSAGE_FOR>SAT_1</MESSAGE_FOR><MESSAGE_ID>000000001_conj_000020923_2023336183714_3322343562936</MESSAGE_ID></header><body><relativeMetadataData><TCA>2023-12-02T18:37:14.465</TCA><MISS_DISTANCE units="m">3008.885021066774</MISS_DISTANCE><RELATIVE_SPEED units="m/s">725.3049979146705</RELATIVE_SPEED><relativeStateVector><RELATIVE_POSITION_R units="m">618.1</RELATIVE_POSITION_R><RELATIVE_POSITION_T units="m">2923.9</RELATIVE_POSITION_T><RELATIVE_POSITION_N units="m">349.5</RELATIVE_POSITION_N><RELATIVE_VELOCITY_R units="m/s">-0.7</RELATIVE_VELOCITY_R><RELATIVE_VELOCITY_T units="m/s">-85.9</RELATIVE_VELOCITY_T><RELATIVE_VELOCITY_N units="m/s">720.2</RELATIVE_VELOCITY_N></relativeStateVector><SCREEN_VOLUME_X units="m">0.0</SCREEN_VOLUME_X><SCREEN_VOLUME_Y units="m">0.0</SCREEN_VOLUME_Y><SCREEN_VOLUME_Z units="m">0.0</SCREEN_VOLUME_Z><COLLISION_PROBABILITY>0.0</COLLISION_PROBABILITY><COLLISION_PROBABILITY_METHOD/></relativeMetadataData><segment><metadata><OBJECT>OBJECT1</OBJECT><OBJECT_DESIGNATOR>00001</OBJECT_DESIGNATOR><CATALOG_NAME>SATCAT</CATALOG_NAME><OBJECT_NAME>SAT_1</OBJECT_NAME><INTERNATIONAL_DESIGNATOR>2024-001A</INTERNATIONAL_DESIGNATOR><OBJECT_TYPE>PAYLOAD</OBJECT_TYPE><OPERATOR_CONTACT_POSITION>https://www.space-track.org/expandedspacedata/query/class/organization/object/~~00001/orderby/ORG_NAME,INFO_ID/format/html/emptyresult/show/</OPERATOR_CONTACT_POSITION><OPERATOR_ORGANIZATION>SAT_1</OPERATOR_ORGANIZATION><OPERATOR_PHONE>https://www.space-track.org/expandedspacedata/query/class/organization/object/~~00001/orderby/ORG_NAME,INFO_ID/format/html/emptyresult/show/</OPERATOR_PHONE><OPERATOR_EMAIL>https://www.space-track.org/expandedspacedata/query/class/organization/object/~~00001/orderby/ORG_NAME,INFO_ID/format/html/emptyresult/show/</OPERATOR_EMAIL><EPHEMERIS_NAME>NONE</EPHEMERIS_NAME><COVARIANCE_METHOD>CALCULATED</COVARIANCE_METHOD><MANEUVERABLE>N/A</MANEUVERABLE><REF_FRAME>ITRF</REF_FRAME><GRAVITY_MODEL>EGM-96: 8D 8O</GRAVITY_MODEL><ATMOSPHERIC_MODEL>NONE</ATMOSPHERIC_MODEL><N_BODY_PERTURBATIONS>MOON,SUN</N_BODY_PERTURBATIONS><SOLAR_RAD_PRESSURE>YES</SOLAR_RAD_PRESSURE><EARTH_TIDES>YES</EARTH_TIDES><INTRACK_THRUST>NO</INTRACK_THRUST></metadata><data><odParameters><TIME_LASTOB_START>2023-11-27T23:45:14.319</TIME_LASTOB_START><TIME_LASTOB_END>2023-11-28T23:45:14.319</TIME_LASTOB_END><RECOMMENDED_OD_SPAN units="d">28.08</RECOMMENDED_OD_SPAN><ACTUAL_OD_SPAN units="d">0.65</ACTUAL_OD_SPAN><OBS_AVAILABLE>3066</OBS_AVAILABLE><OBS_USED>57</OBS_USED><RESIDUALS_ACCEPTED units="%">100.0</RESIDUALS_ACCEPTED><WEIGHTED_RMS>0.838</WEIGHTED_RMS></odParameters><additionalParameters><COMMENT>JAC_LAST_ACC_OB = N/A</COMMENT><COMMENT>Screened with = inertial state vector.</COMMENT><AREA_PC units="m**2">47.6612</AREA_PC><AREA_DRG units="m**2">0.0</AREA_DRG><AREA_SRP units="m**2">0.0</AREA_SRP><MASS units="kg">0.0</MASS><CD_AREA_OVER_MASS units="m**2/kg">0.0</CD_AREA_OVER_MASS><CR_AREA_OVER_MASS units="m**2/kg">0.036802224098</CR_AREA_OVER_MASS></additionalParameters><stateVector><X units="km">41841.231345000015</X><Y units="km">-5325.682177000005</Y><Z units="km">-18.509653000000014</Z><X_DOT units="km/s">0.0017015780000000404</X_DOT><Y_DOT units="km/s">-0.002285918000000038</Y_DOT><Z_DOT units="km/s">0.003997596000000003</Z_DOT></stateVector><covarianceMatrix><CR_R units="m**2">76762.68324978375</CR_R><CT_R units="m**2">-1539376.376535586</CT_R><CT_T units="m**2">3.285484507117388E7</CT_T><CN_R units="m**2">-34.67002911167434</CN_R><CN_T units="m**2">761.0385645792879</CN_T><CN_N units="m**2">10246.27037097162</CN_N><CRDOT_R units="m**2/s">114.687876083308</CRDOT_R><CRDOT_T units="m**2/s">-2450.073288864223</CRDOT_T><CRDOT_N units="m**2/s">-0.05675729802085728</CRDOT_N><CRDOT_RDOT units="m**2/s**2">0.1827262848354953</CRDOT_RDOT><CTDOT_R units="m**2/s">-4.237887827062393</CTDOT_R><CTDOT_T units="m**2/s">83.15497834608345</CTDOT_T><CTDOT_N units="m**2/s">0.001847042901039314</CTDOT_N><CTDOT_RDOT units="m**2/s**2">-0.006192705276926853</CTDOT_RDOT><CTDOT_TDOT units="m**2/s**2">2.356702061482251E-4</CTDOT_TDOT><CNDOT_R units="m**2/s">3.939360575899308E-4</CNDOT_R><CNDOT_T units="m**2/s">-0.009864338271365625</CNDOT_T><CNDOT_N units="m**2/s">0.383327591891424</CNDOT_N><CNDOT_RDOT units="m**2/s**2">7.33645015171667E-7</CNDOT_RDOT><CNDOT_TDOT units="m**2/s**2">-2.154468141298923E-8</CNDOT_TDOT><CNDOT_NDOT units="m**2/s**2">8.476320891638154E-5</CNDOT_NDOT><CDRG_R units="m**3/kg">0.0</CDRG_R><CDRG_T units="m**3/kg">0.0</CDRG_T><CDRG_N units="m**3/kg">0.0</CDRG_N><CDRG_RDOT units="m**3/(kg*s)">0.0</CDRG_RDOT><CDRG_TDOT units="m**3/(kg*s)">0.0</CDRG_TDOT><CDRG_NDOT units="m**3/(kg*s)">0.0</CDRG_NDOT><CDRG_DRG units="m**4/kg**2">0.0</CDRG_DRG><CSRP_R units="m**3/kg">0.0</CSRP_R><CSRP_T units="m**3/kg">0.0</CSRP_T><CSRP_N units="m**3/kg">0.0</CSRP_N><CSRP_RDOT units="m**3/(kg*s)">0.0</CSRP_RDOT><CSRP_TDOT units="m**3/(kg*s)">0.0</CSRP_TDOT><CSRP_NDOT units="m**3/(kg*s)">0.0</CSRP_NDOT><CSRP_DRG units="m**4/kg**2">0.0</CSRP_DRG><CSRP_SRP units="m**4/kg**2">0.0</CSRP_SRP></covarianceMatrix></data></segment><segment><metadata><OBJECT>OBJECT2</OBJECT><OBJECT_DESIGNATOR>20923</OBJECT_DESIGNATOR><CATALOG_NAME>SATCAT</CATALOG_NAME><OBJECT_NAME>GORIZONT 21</OBJECT_NAME><INTERNATIONAL_DESIGNATOR>1990-094A</INTERNATIONAL_DESIGNATOR><OBJECT_TYPE>PAYLOAD</OBJECT_TYPE><OPERATOR_CONTACT_POSITION>https://www.space-track.org/expandedspacedata/query/class/organization/object/~~20923/orderby/ORG_NAME,INFO_ID/format/html/emptyresult/show/</OPERATOR_CONTACT_POSITION><OPERATOR_ORGANIZATION>- Whitelist-Show public CDMs</OPERATOR_ORGANIZATION><OPERATOR_PHONE>https://www.space-track.org/expandedspacedata/query/class/organization/object/~~20923/orderby/ORG_NAME,INFO_ID/format/html/emptyresult/show/</OPERATOR_PHONE><OPERATOR_EMAIL>https://www.space-track.org/expandedspacedata/query/class/organization/object/~~20923/orderby/ORG_NAME,INFO_ID/format/html/emptyresult/show/</OPERATOR_EMAIL><EPHEMERIS_NAME>NONE</EPHEMERIS_NAME><COVARIANCE_METHOD>CALCULATED</COVARIANCE_METHOD><MANEUVERABLE>N/A</MANEUVERABLE><REF_FRAME>ITRF</REF_FRAME><GRAVITY_MODEL>EGM-96: 8D 8O</GRAVITY_MODEL><ATMOSPHERIC_MODEL>NONE</ATMOSPHERIC_MODEL><N_BODY_PERTURBATIONS>MOON,SUN</N_BODY_PERTURBATIONS><SOLAR_RAD_PRESSURE>YES</SOLAR_RAD_PRESSURE><EARTH_TIDES>YES</EARTH_TIDES><INTRACK_THRUST>NO</INTRACK_THRUST></metadata><data><odParameters><TIME_LASTOB_START>2023-11-27T23:45:14.815</TIME_LASTOB_START><TIME_LASTOB_END>2023-11-28T23:45:14.815</TIME_LASTOB_END><RECOMMENDED_OD_SPAN units="d">27.44</RECOMMENDED_OD_SPAN><ACTUAL_OD_SPAN units="d">27.44</ACTUAL_OD_SPAN><OBS_AVAILABLE>402</OBS_AVAILABLE><OBS_USED>402</OBS_USED><RESIDUALS_ACCEPTED units="%">99.0</RESIDUALS_ACCEPTED><WEIGHTED_RMS>1.005</WEIGHTED_RMS></odParameters><additionalParameters><COMMENT>JAC_LAST_ACC_OB = N/A</COMMENT><COMMENT>Screened with = inertial state vector.</COMMENT><AREA_PC units="m**2">7.4991</AREA_PC><AREA_DRG units="m**2">0.0</AREA_DRG><AREA_SRP units="m**2">0.0</AREA_SRP><MASS units="kg">0.0</MASS><CD_AREA_OVER_MASS units="m**2/kg">0.0</CD_AREA_OVER_MASS><CR_AREA_OVER_MASS units="m**2/kg">0.007039323984</CR_AREA_OVER_MASS></additionalParameters><stateVector><X units="km">41842.213792</X><Y units="km">-5322.86024</Y><Z units="km">-18.156664000000006</Z><X_DOT units="km/s">-0.009450327</X_DOT><Y_DOT units="km/s">-0.08841999099999992</Y_DOT><Z_DOT units="km/s">0.7240465310000003</Z_DOT></stateVector><covarianceMatrix><CR_R units="m**2">11838.5204545805</CR_R><CT_R units="m**2">-21812.30148730272</CT_R><CT_T units="m**2">473747.6344346057</CT_T><CN_R units="m**2">-109.1996652915792</CN_R><CN_T units="m**2">94.11985059146444</CN_T><CN_N units="m**2">674.7201157130683</CN_N><CRDOT_R units="m**2/s">1.474664047441016</CRDOT_R><CRDOT_T units="m**2/s">-34.19128870623283</CRDOT_T><CRDOT_N units="m**2/s">-0.004099104363781626</CRDOT_N><CRDOT_RDOT units="m**2/s**2">0.002470594178164306</CRDOT_RDOT><CTDOT_R units="m**2/s">-0.8506845716410519</CTDOT_R><CTDOT_T units="m**2/s">1.268778056944319</CTDOT_T><CTDOT_N units="m**2/s">0.007887229750389722</CTDOT_N><CTDOT_RDOT units="m**2/s**2">-8.424350440355159E-5</CTDOT_RDOT><CTDOT_TDOT units="m**2/s**2">6.134089032619277E-5</CTDOT_TDOT><CNDOT_R units="m**2/s">-0.01951678086405576</CNDOT_R><CNDOT_T units="m**2/s">-0.04546653516055363</CNDOT_T><CNDOT_N units="m**2/s">0.02440683395180471</CNDOT_N><CNDOT_RDOT units="m**2/s**2">3.616698095699896E-6</CNDOT_RDOT><CNDOT_TDOT units="m**2/s**2">1.445821291422364E-6</CNDOT_TDOT><CNDOT_NDOT units="m**2/s**2">6.42021717970459E-5</CNDOT_NDOT><CDRG_R units="m**3/kg">0.0</CDRG_R><CDRG_T units="m**3/kg">0.0</CDRG_T><CDRG_N units="m**3/kg">0.0</CDRG_N><CDRG_RDOT units="m**3/(kg*s)">0.0</CDRG_RDOT><CDRG_TDOT units="m**3/(kg*s)">0.0</CDRG_TDOT><CDRG_NDOT units="m**3/(kg*s)">0.0</CDRG_NDOT><CDRG_DRG units="m**4/kg**2">0.0</CDRG_DRG><CSRP_R units="m**3/kg">0.0</CSRP_R><CSRP_T units="m**3/kg">0.0</CSRP_T><CSRP_N units="m**3/kg">0.0</CSRP_N><CSRP_RDOT units="m**3/(kg*s)">0.0</CSRP_RDOT><CSRP_TDOT units="m**3/(kg*s)">0.0</CSRP_TDOT><CSRP_NDOT units="m**3/(kg*s)">0.0</CSRP_NDOT><CSRP_DRG units="m**4/kg**2">0.0</CSRP_DRG><CSRP_SRP units="m**4/kg**2">0.0</CSRP_SRP></covarianceMatrix></data></segment></body></cdm>